[{"OBJECT_NAME":"DEMO8 (TENZING)","OBJECT_ID":"2021-059CA","EPOCH":"2026-03-15T07:22:51.206304","MEAN_MOTION":15.51260962,"ECCENTRICITY":0.00067148,"INCLINATION":97.7052,"RA_OF_ASC_NODE":260.8217,"ARG_OF_PERICENTER":333.6946,"MEAN_ANOMALY":26.3963,"EPHEMERIS_TYPE":0,"CLASSIFICATION_TYPE":"U","NORAD_CAT_ID":48951,"ELEMENT_SET_NO":999,"REV_AT_EPOCH":26273,"BSTAR":0.00040545236,"MEAN_MOTION_DOT":0.00023713,"MEAN_MOTION_DDOT":0},{"OBJECT_NAME":"NAPA-2","OBJECT_ID":"2021-059CN","EPOCH":"2026-03-15T07:52:13.826784","MEAN_MOTION":15.71977187,"ECCENTRICITY":0.00037369,"INCLINATION":97.6845,"RA_OF_ASC_NODE":262.3844,"ARG_OF_PERICENTER":293.6149,"MEAN_ANOMALY":66.4721,"EPHEMERIS_TYPE":0,"CLASSIFICATION_TYPE":"U","NORAD_CAT_ID":48963,"ELEMENT_SET_NO":999,"REV_AT_EPOCH":26296,"BSTAR":0.00066568304,"MEAN_MOTION_DOT":0.00087383,"MEAN_MOTION_DDOT":0},{"OBJECT_NAME":"JILIN-1 GAOFEN 3D03","OBJECT_ID":"2021-061D","EPOCH":"2026-03-15T07:34:28.903584","MEAN_MOTION":15.82559037,"ECCENTRICITY":0.0001215,"INCLINATION":97.3013,"RA_OF_ASC_NODE":151.66,"ARG_OF_PERICENTER":159.1654,"MEAN_ANOMALY":200.9665,"EPHEMERIS_TYPE":0,"CLASSIFICATION_TYPE":"U","NORAD_CAT_ID":49006,"ELEMENT_SET_NO":999,"REV_AT_EPOCH":26143,"BSTAR":0.0010489692,"MEAN_MOTION_DOT":0.00223212,"MEAN_MOTION_DDOT":0},{"OBJECT_NAME":"XINGSHIDAI 10","OBJECT_ID":"2021-061E","EPOCH":"2026-03-15T06:47:03.954624","MEAN_MOTION":15.7977096,"ECCENTRICITY":8.485e-5,"INCLINATION":97.3008,"RA_OF_ASC_NODE":151.2746,"ARG_OF_PERICENTER":181.4681,"MEAN_ANOMALY":178.6585,"EPHEMERIS_TYPE":0,"CLASSIFICATION_TYPE":"U","NORAD_CAT_ID":49007,"ELEMENT_SET_NO":999,"REV_AT_EPOCH":26140,"BSTAR":0.0010541674,"MEAN_MOTION_DOT":0.00196842,"MEAN_MOTION_DDOT":0},{"OBJECT_NAME":"FENGYUN 3E","OBJECT_ID":"2021-062A","EPOCH":"2026-03-15T06:27:19.794240","MEAN_MOTION":14.19895974,"ECCENTRICITY":0.00020309,"INCLINATION":98.7519,"RA_OF_ASC_NODE":78.7206,"ARG_OF_PERICENTER":32.1955,"MEAN_ANOMALY":327.9345,"EPHEMERIS_TYPE":0,"CLASSIFICATION_TYPE":"U","NORAD_CAT_ID":49008,"ELEMENT_SET_NO":999,"REV_AT_EPOCH":24325,"BSTAR":0.00022320977,"MEAN_MOTION_DOT":4.3e-6,"MEAN_MOTION_DDOT":0},{"OBJECT_NAME":"ISS (NAUKA)","OBJECT_ID":"2021-066A","EPOCH":"2026-03-15T04:37:08.870592","MEAN_MOTION":15.48288531,"ECCENTRICITY":0.00063636,"INCLINATION":51.633,"RA_OF_ASC_NODE":45.1519,"ARG_OF_PERICENTER":192.7288,"MEAN_ANOMALY":167.354,"EPHEMERIS_TYPE":0,"CLASSIFICATION_TYPE":"U","NORAD_CAT_ID":49044,"ELEMENT_SET_NO":999,"REV_AT_EPOCH":55445,"BSTAR":0.0001887181,"MEAN_MOTION_DOT":9.711e-5,"MEAN_MOTION_DDOT":0},{"OBJECT_NAME":"STARLINK-3100","OBJECT_ID":"2021-082Q","EPOCH":"2026-03-14T21:48:33.277536","MEAN_MOTION":14.98331233,"ECCENTRICITY":0.000283,"INCLINATION":69.997,"RA_OF_ASC_NODE":281.2843,"ARG_OF_PERICENTER":268.173,"MEAN_ANOMALY":91.9105,"EPHEMERIS_TYPE":0,"CLASSIFICATION_TYPE":"U","NORAD_CAT_ID":49144,"ELEMENT_SET_NO":999,"REV_AT_EPOCH":24676,"BSTAR":3.8856109e-5,"MEAN_MOTION_DOT":3.71e-6,"MEAN_MOTION_DDOT":0},{"OBJECT_NAME":"CUTE","OBJECT_ID":"2021-088D","EPOCH":"2026-03-15T05:38:25.149120","MEAN_MOTION":15.67312317,"ECCENTRICITY":0.00030393,"INCLINATION":97.422,"RA_OF_ASC_NODE":166.7488,"ARG_OF_PERICENTER":287.6462,"MEAN_ANOMALY":72.4467,"EPHEMERIS_TYPE":0,"CLASSIFICATION_TYPE":"U","NORAD_CAT_ID":49263,"ELEMENT_SET_NO":999,"REV_AT_EPOCH":24774,"BSTAR":0.00046130938,"MEAN_MOTION_DOT":0.00049702,"MEAN_MOTION_DDOT":0},{"OBJECT_NAME":"2021-091B","OBJECT_ID":"2021-091B","EPOCH":"2026-03-15T06:39:04.201344","MEAN_MOTION":15.18024248,"ECCENTRICITY":0.00138351,"INCLINATION":97.4482,"RA_OF_ASC_NODE":263.3011,"ARG_OF_PERICENTER":14.0948,"MEAN_ANOMALY":346.0669,"EPHEMERIS_TYPE":0,"CLASSIFICATION_TYPE":"U","NORAD_CAT_ID":49316,"ELEMENT_SET_NO":999,"REV_AT_EPOCH":24473,"BSTAR":0.00017950314,"MEAN_MOTION_DOT":3.592e-5,"MEAN_MOTION_DDOT":0},{"OBJECT_NAME":"SDGSAT 1","OBJECT_ID":"2021-100A","EPOCH":"2026-03-15T08:02:20.554368","MEAN_MOTION":15.19405455,"ECCENTRICITY":0.00064603,"INCLINATION":97.2771,"RA_OF_ASC_NODE":124.7367,"ARG_OF_PERICENTER":259.7933,"MEAN_ANOMALY":100.2574,"EPHEMERIS_TYPE":0,"CLASSIFICATION_TYPE":"U","NORAD_CAT_ID":49387,"ELEMENT_SET_NO":999,"REV_AT_EPOCH":24166,"BSTAR":0.00017941342,"MEAN_MOTION_DOT":3.734e-5,"MEAN_MOTION_DDOT":0},{"OBJECT_NAME":"TEIKYOSAT-4 (OORURI)","OBJECT_ID":"2021-102B","EPOCH":"2026-03-15T01:06:20.255328","MEAN_MOTION":15.09145269,"ECCENTRICITY":0.00105976,"INCLINATION":97.3786,"RA_OF_ASC_NODE":107.1599,"ARG_OF_PERICENTER":255.2231,"MEAN_ANOMALY":104.7825,"EPHEMERIS_TYPE":0,"CLASSIFICATION_TYPE":"U","NORAD_CAT_ID":49396,"ELEMENT_SET_NO":999,"REV_AT_EPOCH":23852,"BSTAR":0.0001856466,"MEAN_MOTION_DOT":2.889e-5,"MEAN_MOTION_DDOT":0},{"OBJECT_NAME":"Z-SAT","OBJECT_ID":"2021-102E","EPOCH":"2026-03-15T07:46:07.169376","MEAN_MOTION":15.17485108,"ECCENTRICITY":0.00159643,"INCLINATION":97.3456,"RA_OF_ASC_NODE":112.4903,"ARG_OF_PERICENTER":210.0527,"MEAN_ANOMALY":149.9793,"EPHEMERIS_TYPE":0,"CLASSIFICATION_TYPE":"U","NORAD_CAT_ID":49399,"ELEMENT_SET_NO":999,"REV_AT_EPOCH":23920,"BSTAR":0.00028763077,"MEAN_MOTION_DOT":5.715e-5,"MEAN_MOTION_DDOT":0},{"OBJECT_NAME":"HIBARI","OBJECT_ID":"2021-102F","EPOCH":"2026-03-15T01:40:22.282176","MEAN_MOTION":15.29704108,"ECCENTRICITY":0.00126484,"INCLINATION":97.3376,"RA_OF_ASC_NODE":121.122,"ARG_OF_PERICENTER":167.7871,"MEAN_ANOMALY":192.3678,"EPHEMERIS_TYPE":0,"CLASSIFICATION_TYPE":"U","NORAD_CAT_ID":49400,"ELEMENT_SET_NO":999,"REV_AT_EPOCH":23979,"BSTAR":0.00054068116,"MEAN_MOTION_DOT":0.00015536,"MEAN_MOTION_DDOT":0},{"OBJECT_NAME":"KOSEN-1","OBJECT_ID":"2021-102H","EPOCH":"2026-03-15T01:18:05.449536","MEAN_MOTION":15.25426055,"ECCENTRICITY":0.00143701,"INCLINATION":97.3327,"RA_OF_ASC_NODE":118.0721,"ARG_OF_PERICENTER":173.6337,"MEAN_ANOMALY":186.5087,"EPHEMERIS_TYPE":0,"CLASSIFICATION_TYPE":"U","NORAD_CAT_ID":49402,"ELEMENT_SET_NO":999,"REV_AT_EPOCH":23966,"BSTAR":0.00042940696,"MEAN_MOTION_DOT":0.00010818,"MEAN_MOTION_DDOT":0},{"OBJECT_NAME":"GLOBAL-14","OBJECT_ID":"2021-106A","EPOCH":"2026-03-14T12:31:58.727136","MEAN_MOTION":15.45987405,"ECCENTRICITY":0.00121982,"INCLINATION":42.0048,"RA_OF_ASC_NODE":131.7574,"ARG_OF_PERICENTER":84.9894,"MEAN_ANOMALY":275.2341,"EPHEMERIS_TYPE":0,"CLASSIFICATION_TYPE":"U","NORAD_CAT_ID":49469,"ELEMENT_SET_NO":999,"REV_AT_EPOCH":24345,"BSTAR":0.0006714133,"MEAN_MOTION_DOT":0.00033497,"MEAN_MOTION_DDOT":0},{"OBJECT_NAME":"GAOFEN-3 02","OBJECT_ID":"2021-109A","EPOCH":"2026-03-15T05:59:39.220800","MEAN_MOTION":14.42217891,"ECCENTRICITY":0.00013992,"INCLINATION":98.4134,"RA_OF_ASC_NODE":83.6679,"ARG_OF_PERICENTER":281.5097,"MEAN_ANOMALY":78.5935,"EPHEMERIS_TYPE":0,"CLASSIFICATION_TYPE":"U","NORAD_CAT_ID":49495,"ELEMENT_SET_NO":999,"REV_AT_EPOCH":22677,"BSTAR":8.6292421e-5,"MEAN_MOTION_DOT":2.41e-6,"MEAN_MOTION_DDOT":0}]
