DEMO8 (TENZING)         
1 48951U 21059CA  26074.30753711  .00023713  00000+0  40545-3 0  9996
2 48951  97.7052 260.8217 0006714 333.6946  26.3963 15.51260962262733
NAPA-2                  
1 48963U 21059CN  26074.32793781  .00087383  00000+0  66568-3 0  9998
2 48963  97.6845 262.3844 0003736 293.6149  66.4721 15.71977187262967
JILIN-1 GAOFEN 3D03     
1 49006U 21061D   26074.31561231  .00223212  00000+0  10490-2 0  9997
2 49006  97.3013 151.6600 0001215 159.1654 200.9665 15.82559037261432
XINGSHIDAI 10           
1 49007U 21061E   26074.28268466  .00196842  00000+0  10542-2 0  9994
2 49007  97.3008 151.2746 0000848 181.4681 178.6585 15.79770960261408
FENGYUN 3E              
1 49008U 21062A   26074.26897910  .00000430  00000+0  22321-3 0  9992
2 49008  98.7519  78.7206 0002030  32.1955 327.9345 14.19895974243258
ISS (NAUKA)             
1 49044U 21066A   26074.19246378  .00009711  00000+0  18872-3 0  9991
2 49044  51.6330  45.1519 0006363 192.7288 167.3540 15.48288531554455
STARLINK-3100           
1 49144U 21082Q   26073.90871849  .00000371  00000+0  38856-4 0  9993
2 49144  69.9970 281.2843 0002830 268.1730  91.9105 14.98331233246769
CUTE                    
1 49263U 21088D   26074.23501330  .00049702  00000+0  46131-3 0  9998
2 49263  97.4220 166.7488 0003039 287.6462  72.4467 15.67312317247740
2021-091B               
1 49316U 21091B   26074.27713196  .00003592  00000+0  17950-3 0  9994
2 49316  97.4482 263.3011 0013835  14.0948 346.0669 15.18024248244730
SDGSAT 1                
1 49387U 21100A   26074.33496012  .00003734  00000+0  17941-3 0  9993
2 49387  97.2771 124.7367 0006460 259.7933 100.2574 15.19405455241667
TEIKYOSAT-4 (OORURI)    
1 49396U 21102B   26074.04606777  .00002889  00000+0  18565-3 0  9997
2 49396  97.3786 107.1599 0010597 255.2231 104.7825 15.09145269238526
Z-SAT                   
1 49399U 21102E   26074.32369409  .00005715  00000+0  28763-3 0  9991
2 49399  97.3456 112.4903 0015964 210.0527 149.9793 15.17485108239200
HIBARI                  
1 49400U 21102F   26074.06970234  .00015536  00000+0  54068-3 0  9998
2 49400  97.3376 121.1220 0012648 167.7871 192.3678 15.29704108239794
KOSEN-1                 
1 49402U 21102H   26074.05422974  .00010818  00000+0  42941-3 0  9997
2 49402  97.3327 118.0721 0014370 173.6337 186.5087 15.25426055239663
GLOBAL-14               
1 49469U 21106A   26073.52220749  .00033497  00000+0  67141-3 0  9998
2 49469  42.0048 131.7574 0012198  84.9894 275.2341 15.45987405243453
GAOFEN-3 02             
1 49495U 21109A   26074.24975950  .00000241  00000+0  86292-4 0  9991
2 49495  98.4134  83.6679 0001399 281.5097  78.5935 14.42217891226775
